STARLINK-30790          
1 58127U 23162K   26068.22212918  .00039164  00000+0  21713-2 0  9994
2 58127  42.9975 130.2155 0010343  31.6175 328.5291 15.13105037132295
CURIUM ONE              
1 60242U 24128H   26068.68697111  .00012574  00000+0  74107-3 0  9992
2 60242  61.9790 197.7537 0050891 110.7183 249.9377 15.10847276 91418
